[{"OBJECT_NAME":"STARLINK-32937","OBJECT_ID":"2025-043S","EPOCH":"2026-03-09T05:39:30.109824","MEAN_MOTION":15.27583177,"ECCENTRICITY":0.0001382,"INCLINATION":43.0038,"RA_OF_ASC_NODE":18.7338,"ARG_OF_PERICENTER":274.4131,"MEAN_ANOMALY":85.6562,"EPHEMERIS_TYPE":0,"CLASSIFICATION_TYPE":"U","NORAD_CAT_ID":63148,"ELEMENT_SET_NO":999,"REV_AT_EPOCH":5729,"BSTAR":0.0013678106,"MEAN_MOTION_DOT":0.00037573,"MEAN_MOTION_DDOT":0},{"OBJECT_NAME":"CZ-2C R\/B","OBJECT_ID":"2024-007B","EPOCH":"2026-03-09T13:33:21.523680","MEAN_MOTION":15.39758847,"ECCENTRICITY":0.00678111,"INCLINATION":29.0105,"RA_OF_ASC_NODE":269.6864,"ARG_OF_PERICENTER":313.7067,"MEAN_ANOMALY":45.794,"EPHEMERIS_TYPE":0,"CLASSIFICATION_TYPE":"U","NORAD_CAT_ID":58754,"ELEMENT_SET_NO":999,"REV_AT_EPOCH":12080,"BSTAR":0.0004050997,"MEAN_MOTION_DOT":0.00018271,"MEAN_MOTION_DDOT":0}]
